[{"OBJECT_NAME":"ONEWEB-0174","OBJECT_ID":"2021-025AG","EPOCH":"2025-12-12T06:26:00.175776","MEAN_MOTION":13.13471095,"ECCENTRICITY":0.00015766,"INCLINATION":87.8976,"RA_OF_ASC_NODE":357.3777,"ARG_OF_PERICENTER":95.1759,"MEAN_ANOMALY":264.955,"EPHEMERIS_TYPE":0,"CLASSIFICATION_TYPE":"U","NORAD_CAT_ID":48072,"ELEMENT_SET_NO":999,"REV_AT_EPOCH":22929,"BSTAR":0.00060888242,"MEAN_MOTION_DOT":2.35e-6,"MEAN_MOTION_DDOT":0},{"OBJECT_NAME":"ONEWEB-0175","OBJECT_ID":"2021-025AH","EPOCH":"2025-12-12T07:09:52.730208","MEAN_MOTION":13.13471143,"ECCENTRICITY":0.00019372,"INCLINATION":87.8987,"RA_OF_ASC_NODE":357.341,"ARG_OF_PERICENTER":82.3212,"MEAN_ANOMALY":277.8137,"EPHEMERIS_TYPE":0,"CLASSIFICATION_TYPE":"U","NORAD_CAT_ID":48073,"ELEMENT_SET_NO":999,"REV_AT_EPOCH":22895,"BSTAR":-0.00087745993,"MEAN_MOTION_DOT":-3.08e-6,"MEAN_MOTION_DDOT":0},{"OBJECT_NAME":"ONEWEB-0177","OBJECT_ID":"2021-025AJ","EPOCH":"2025-12-12T07:26:57.236352","MEAN_MOTION":13.13470754,"ECCENTRICITY":0.00015191,"INCLINATION":87.8987,"RA_OF_ASC_NODE":357.358,"ARG_OF_PERICENTER":92.2759,"MEAN_ANOMALY":267.8544,"EPHEMERIS_TYPE":0,"CLASSIFICATION_TYPE":"U","NORAD_CAT_ID":48074,"ELEMENT_SET_NO":999,"REV_AT_EPOCH":22914,"BSTAR":-0.00032328765,"MEAN_MOTION_DOT":-1.05e-6,"MEAN_MOTION_DDOT":0},{"OBJECT_NAME":"ONEWEB-0178","OBJECT_ID":"2021-025AK","EPOCH":"2025-12-12T00:35:11.080320","MEAN_MOTION":13.13470665,"ECCENTRICITY":0.0001654,"INCLINATION":87.8976,"RA_OF_ASC_NODE":357.4561,"ARG_OF_PERICENTER":81.3266,"MEAN_ANOMALY":278.805,"EPHEMERIS_TYPE":0,"CLASSIFICATION_TYPE":"U","NORAD_CAT_ID":48075,"ELEMENT_SET_NO":999,"REV_AT_EPOCH":22915,"BSTAR":0.00085233,"MEAN_MOTION_DOT":3.24e-6,"MEAN_MOTION_DDOT":0},{"OBJECT_NAME":"ONEWEB-0108","OBJECT_ID":"2021-025AL","EPOCH":"2025-12-12T06:55:16.406976","MEAN_MOTION":13.13470891,"ECCENTRICITY":0.00018394,"INCLINATION":87.8988,"RA_OF_ASC_NODE":357.3522,"ARG_OF_PERICENTER":97.963,"MEAN_ANOMALY":262.1708,"EPHEMERIS_TYPE":0,"CLASSIFICATION_TYPE":"U","NORAD_CAT_ID":48076,"ELEMENT_SET_NO":999,"REV_AT_EPOCH":22911,"BSTAR":-0.00063494348,"MEAN_MOTION_DOT":-2.19e-6,"MEAN_MOTION_DDOT":0},{"OBJECT_NAME":"ONEWEB-0169","OBJECT_ID":"2021-025AM","EPOCH":"2025-12-12T07:41:33.849024","MEAN_MOTION":13.13468734,"ECCENTRICITY":0.00018405,"INCLINATION":87.8983,"RA_OF_ASC_NODE":357.3667,"ARG_OF_PERICENTER":98.2622,"MEAN_ANOMALY":261.8716,"EPHEMERIS_TYPE":0,"CLASSIFICATION_TYPE":"U","NORAD_CAT_ID":48077,"ELEMENT_SET_NO":999,"REV_AT_EPOCH":22777,"BSTAR":0.0006548383,"MEAN_MOTION_DOT":2.52e-6,"MEAN_MOTION_DDOT":0},{"OBJECT_NAME":"ONEWEB-0176","OBJECT_ID":"2021-031A","EPOCH":"2025-12-12T00:07:41.952288","MEAN_MOTION":13.1450319,"ECCENTRICITY":0.0001585,"INCLINATION":87.8991,"RA_OF_ASC_NODE":326.9933,"ARG_OF_PERICENTER":77.4544,"MEAN_ANOMALY":282.6763,"EPHEMERIS_TYPE":0,"CLASSIFICATION_TYPE":"U","NORAD_CAT_ID":48210,"ELEMENT_SET_NO":999,"REV_AT_EPOCH":22372,"BSTAR":-0.0016138,"MEAN_MOTION_DOT":-5.85e-6,"MEAN_MOTION_DDOT":0},{"OBJECT_NAME":"ONEWEB-0184","OBJECT_ID":"2021-031B","EPOCH":"2025-12-12T04:57:43.810848","MEAN_MOTION":13.14503541,"ECCENTRICITY":0.00021809,"INCLINATION":87.9003,"RA_OF_ASC_NODE":326.9336,"ARG_OF_PERICENTER":63.0773,"MEAN_ANOMALY":297.0579,"EPHEMERIS_TYPE":0,"CLASSIFICATION_TYPE":"U","NORAD_CAT_ID":48211,"ELEMENT_SET_NO":999,"REV_AT_EPOCH":22372,"BSTAR":-0.00063152472,"MEAN_MOTION_DOT":-2.21e-6,"MEAN_MOTION_DDOT":0},{"OBJECT_NAME":"ONEWEB-0179","OBJECT_ID":"2021-031C","EPOCH":"2025-12-12T06:05:06.185184","MEAN_MOTION":13.14493843,"ECCENTRICITY":0.0001771,"INCLINATION":87.8999,"RA_OF_ASC_NODE":326.9318,"ARG_OF_PERICENTER":87.6212,"MEAN_ANOMALY":272.5121,"EPHEMERIS_TYPE":0,"CLASSIFICATION_TYPE":"U","NORAD_CAT_ID":48212,"ELEMENT_SET_NO":999,"REV_AT_EPOCH":22377,"BSTAR":0.0060341646,"MEAN_MOTION_DOT":2.25e-5,"MEAN_MOTION_DDOT":0},{"OBJECT_NAME":"ONEWEB-0180","OBJECT_ID":"2021-031D","EPOCH":"2025-12-12T05:02:17.474208","MEAN_MOTION":13.14503338,"ECCENTRICITY":0.00015366,"INCLINATION":87.9,"RA_OF_ASC_NODE":326.9386,"ARG_OF_PERICENTER":76.1262,"MEAN_ANOMALY":284.0038,"EPHEMERIS_TYPE":0,"CLASSIFICATION_TYPE":"U","NORAD_CAT_ID":48213,"ELEMENT_SET_NO":999,"REV_AT_EPOCH":22365,"BSTAR":-0.00061279612,"MEAN_MOTION_DOT":-2.14e-6,"MEAN_MOTION_DDOT":0},{"OBJECT_NAME":"ONEWEB-0218","OBJECT_ID":"2021-031E","EPOCH":"2025-12-12T00:05:26.585952","MEAN_MOTION":13.14503178,"ECCENTRICITY":0.0001991,"INCLINATION":87.9001,"RA_OF_ASC_NODE":326.98,"ARG_OF_PERICENTER":57.6632,"MEAN_ANOMALY":302.469,"EPHEMERIS_TYPE":0,"CLASSIFICATION_TYPE":"U","NORAD_CAT_ID":48214,"ELEMENT_SET_NO":999,"REV_AT_EPOCH":22378,"BSTAR":0.00023208,"MEAN_MOTION_DOT":9.9e-7,"MEAN_MOTION_DDOT":0},{"OBJECT_NAME":"ONEWEB-0209","OBJECT_ID":"2021-031F","EPOCH":"2025-12-11T23:49:27.149376","MEAN_MOTION":13.14502542,"ECCENTRICITY":0.0001511,"INCLINATION":87.8988,"RA_OF_ASC_NODE":327.019,"ARG_OF_PERICENTER":84.3964,"MEAN_ANOMALY":275.7338,"EPHEMERIS_TYPE":0,"CLASSIFICATION_TYPE":"U","NORAD_CAT_ID":48215,"ELEMENT_SET_NO":999,"REV_AT_EPOCH":22378,"BSTAR":-0.00053948,"MEAN_MOTION_DOT":-1.87e-6,"MEAN_MOTION_DDOT":0},{"OBJECT_NAME":"ONEWEB-0198","OBJECT_ID":"2021-031G","EPOCH":"2025-12-11T23:26:48.073920","MEAN_MOTION":13.14504038,"ECCENTRICITY":0.0001559,"INCLINATION":87.8989,"RA_OF_ASC_NODE":327.0193,"ARG_OF_PERICENTER":71.9543,"MEAN_ANOMALY":288.1756,"EPHEMERIS_TYPE":0,"CLASSIFICATION_TYPE":"U","NORAD_CAT_ID":48216,"ELEMENT_SET_NO":999,"REV_AT_EPOCH":22389,"BSTAR":-0.00050219,"MEAN_MOTION_DOT":-1.73e-6,"MEAN_MOTION_DDOT":0},{"OBJECT_NAME":"ONEWEB-0189","OBJECT_ID":"2021-031H","EPOCH":"2025-12-11T23:44:52.246176","MEAN_MOTION":13.145039,"ECCENTRICITY":0.0001586,"INCLINATION":87.8993,"RA_OF_ASC_NODE":326.9906,"ARG_OF_PERICENTER":73.5121,"MEAN_ANOMALY":286.6183,"EPHEMERIS_TYPE":0,"CLASSIFICATION_TYPE":"U","NORAD_CAT_ID":48217,"ELEMENT_SET_NO":999,"REV_AT_EPOCH":22363,"BSTAR":-0.00058589,"MEAN_MOTION_DOT":-2.04e-6,"MEAN_MOTION_DDOT":0},{"OBJECT_NAME":"ONEWEB-0196","OBJECT_ID":"2021-031J","EPOCH":"2025-12-12T04:41:44.846880","MEAN_MOTION":13.14503002,"ECCENTRICITY":0.00016392,"INCLINATION":87.8992,"RA_OF_ASC_NODE":326.9635,"ARG_OF_PERICENTER":81.71,"MEAN_ANOMALY":278.4215,"EPHEMERIS_TYPE":0,"CLASSIFICATION_TYPE":"U","NORAD_CAT_ID":48218,"ELEMENT_SET_NO":999,"REV_AT_EPOCH":22366,"BSTAR":-0.00017616994,"MEAN_MOTION_DOT":-5.3e-7,"MEAN_MOTION_DDOT":0},{"OBJECT_NAME":"ONEWEB-0183","OBJECT_ID":"2021-031K","EPOCH":"2025-12-12T05:54:49.118112","MEAN_MOTION":13.14503874,"ECCENTRICITY":0.00016492,"INCLINATION":87.898,"RA_OF_ASC_NODE":326.9578,"ARG_OF_PERICENTER":92.283,"MEAN_ANOMALY":267.8489,"EPHEMERIS_TYPE":0,"CLASSIFICATION_TYPE":"U","NORAD_CAT_ID":48219,"ELEMENT_SET_NO":999,"REV_AT_EPOCH":22376,"BSTAR":0.0006869325,"MEAN_MOTION_DOT":2.67e-6,"MEAN_MOTION_DDOT":0},{"OBJECT_NAME":"ONEWEB-0185","OBJECT_ID":"2021-031L","EPOCH":"2025-12-11T23:14:03.501312","MEAN_MOTION":13.14503768,"ECCENTRICITY":0.0001365,"INCLINATION":87.9005,"RA_OF_ASC_NODE":326.9893,"ARG_OF_PERICENTER":91.9347,"MEAN_ANOMALY":268.1939,"EPHEMERIS_TYPE":0,"CLASSIFICATION_TYPE":"U","NORAD_CAT_ID":48220,"ELEMENT_SET_NO":999,"REV_AT_EPOCH":22365,"BSTAR":-0.0002482,"MEAN_MOTION_DOT":-7.9e-7,"MEAN_MOTION_DDOT":0},{"OBJECT_NAME":"ONEWEB-0187","OBJECT_ID":"2021-031M","EPOCH":"2025-12-12T06:03:44.468064","MEAN_MOTION":13.14504662,"ECCENTRICITY":0.0001453,"INCLINATION":87.8988,"RA_OF_ASC_NODE":326.974,"ARG_OF_PERICENTER":82.7534,"MEAN_ANOMALY":277.3761,"EPHEMERIS_TYPE":0,"CLASSIFICATION_TYPE":"U","NORAD_CAT_ID":48221,"ELEMENT_SET_NO":999,"REV_AT_EPOCH":22370,"BSTAR":0.000498229,"MEAN_MOTION_DOT":1.98e-6,"MEAN_MOTION_DDOT":0},{"OBJECT_NAME":"ONEWEB-0192","OBJECT_ID":"2021-031N","EPOCH":"2025-12-11T23:51:44.140032","MEAN_MOTION":13.14503632,"ECCENTRICITY":0.0001779,"INCLINATION":87.8985,"RA_OF_ASC_NODE":327.0156,"ARG_OF_PERICENTER":82.2456,"MEAN_ANOMALY":277.8875,"EPHEMERIS_TYPE":0,"CLASSIFICATION_TYPE":"U","NORAD_CAT_ID":48222,"ELEMENT_SET_NO":999,"REV_AT_EPOCH":22358,"BSTAR":-0.00025206,"MEAN_MOTION_DOT":-8.1e-7,"MEAN_MOTION_DDOT":0},{"OBJECT_NAME":"ONEWEB-0219","OBJECT_ID":"2021-031P","EPOCH":"2025-12-12T04:50:52.188288","MEAN_MOTION":13.14503627,"ECCENTRICITY":0.00014604,"INCLINATION":87.8992,"RA_OF_ASC_NODE":326.9522,"ARG_OF_PERICENTER":85.681,"MEAN_ANOMALY":274.4486,"EPHEMERIS_TYPE":0,"CLASSIFICATION_TYPE":"U","NORAD_CAT_ID":48223,"ELEMENT_SET_NO":999,"REV_AT_EPOCH":22381,"BSTAR":-0.0006242259,"MEAN_MOTION_DOT":-2.19e-6,"MEAN_MOTION_DDOT":0},{"OBJECT_NAME":"ONEWEB-0202","OBJECT_ID":"2021-031Q","EPOCH":"2025-12-12T04:23:27.622176","MEAN_MOTION":13.14503913,"ECCENTRICITY":0.0001709,"INCLINATION":87.8986,"RA_OF_ASC_NODE":326.9679,"ARG_OF_PERICENTER":60.339,"MEAN_ANOMALY":299.791,"EPHEMERIS_TYPE":0,"CLASSIFICATION_TYPE":"U","NORAD_CAT_ID":48224,"ELEMENT_SET_NO":999,"REV_AT_EPOCH":22379,"BSTAR":0.00025517199,"MEAN_MOTION_DOT":1.07e-6,"MEAN_MOTION_DDOT":0},{"OBJECT_NAME":"ONEWEB-0204","OBJECT_ID":"2021-031R","EPOCH":"2025-12-11T23:43:44.264928","MEAN_MOTION":13.14504595,"ECCENTRICITY":0.000174,"INCLINATION":87.8991,"RA_OF_ASC_NODE":326.9966,"ARG_OF_PERICENTER":95.536,"MEAN_ANOMALY":264.5968,"EPHEMERIS_TYPE":0,"CLASSIFICATION_TYPE":"U","NORAD_CAT_ID":48225,"ELEMENT_SET_NO":999,"REV_AT_EPOCH":22366,"BSTAR":-0.00051348,"MEAN_MOTION_DOT":-1.78e-6,"MEAN_MOTION_DDOT":0},{"OBJECT_NAME":"ONEWEB-0205","OBJECT_ID":"2021-031S","EPOCH":"2025-12-12T04:37:10.344576","MEAN_MOTION":13.14503581,"ECCENTRICITY":0.00015682,"INCLINATION":87.8991,"RA_OF_ASC_NODE":326.9491,"ARG_OF_PERICENTER":85.4432,"MEAN_ANOMALY":274.6877,"EPHEMERIS_TYPE":0,"CLASSIFICATION_TYPE":"U","NORAD_CAT_ID":48226,"ELEMENT_SET_NO":999,"REV_AT_EPOCH":22370,"BSTAR":-0.00014777505,"MEAN_MOTION_DOT":-4.2e-7,"MEAN_MOTION_DDOT":0}]
